STARLINK-35962          
1 66518U 25265C   25330.91673611 -.01242014  00000+0 -46200-2 0  9992
2 66518  43.0009 149.0900 0001748 271.6176  47.1397 15.89446246  2458
STARLINK-35931          
1 66519U 25265D   25330.91673611 -.01250385  00000+0 -46445-2 0  9994
2 66519  43.0012 149.0847 0001780 276.7038  44.1253 15.89489907  2451
STARLINK-35952          
1 66520U 25265E   25330.91673611 -.01251697  00000+0 -46399-2 0  9991
2 66520  43.0008 149.0792 0001776 278.1637  44.7550 15.89532490  2455
STARLINK-35915          
1 66521U 25265F   25330.91673611 -.01261594  00000+0 -46697-2 0  9990
2 66521  43.0009 149.0751 0001875 275.3638  49.1502 15.89579351  2455
STARLINK-35946          
1 66522U 25265G   25330.91673611 -.01270710  00000+0 -46967-2 0  9991
2 66522  43.0009 149.0697 0001818 276.7850  49.9213 15.89625861  2458
STARLINK-35969          
1 66523U 25265H   25330.91673611 -.01277627  00000+0 -47147-2 0  9997
2 66523  43.0012 149.0645 0001837 276.4748  52.2533 15.89670693  2455
STARLINK-35687          
1 66524U 25265J   25330.91673611 -.01286284  00000+0 -47390-2 0  9997
2 66524  43.0010 149.0591 0001847 273.5777  57.2523 15.89718728  2451
STARLINK-35975          
1 66525U 25265K   25330.91673611 -.01290243  00000+0 -47455-2 0  9990
2 66525  43.0010 149.0548 0001700 279.6484  53.0027 15.89761547  2454
STARLINK-35932          
1 66526U 25265L   25330.91673611 -.01296461  00000+0 -47600-2 0  9991
2 66526  43.0012 149.0495 0001838 277.8180  56.8977 15.89806191  2341
STARLINK-35935          
1 66527U 25265M   25330.91673611 -.01300324  00000+0 -47651-2 0  9992
2 66527  43.0012 149.0446 0001876 275.7516  61.0561 15.89850332  2455
STARLINK-35928          
1 66528U 25265N   25330.91673611 -.01309785  00000+0 -47926-2 0  9998
2 66528  43.0012 149.0391 0001902 277.0129  61.8454 15.89897575  2459
STARLINK-35933          
1 66529U 25265P   25330.91673611 -.01319251  00000+0 -48203-2 0  9997
2 66529  43.0012 149.0335 0001868 276.1816  64.8372 15.89945006  2457
