CCSDS_OMM_VERS = 2.0
CREATION_DATE  = 
ORIGINATOR     = 

OBJECT_NAME    = STARLINK-35962
OBJECT_ID      = 2025-265C
CENTER_NAME    = EARTH
REF_FRAME      = TEME
TIME_SYSTEM    = UTC
MEAN_ELEMENT_THEORY = SGP/SGP4

EPOCH          = 2025-11-26T22:00:05.999904
MEAN_MOTION    = 15.89446246
ECCENTRICITY   = .00017489
INCLINATION    = 43.0009
RA_OF_ASC_NODE = 149.0900
ARG_OF_PERICENTER = 271.6176
MEAN_ANOMALY   = 47.1397

EPHEMERIS_TYPE = 0
CLASSIFICATION_TYPE = U
NORAD_CAT_ID   = 66518
ELEMENT_SET_NO = 999
REV_AT_EPOCH   = 245
BSTAR          = -.46199562E-2
MEAN_MOTION_DOT = -.1242014E-1
MEAN_MOTION_DDOT = 0

CCSDS_OMM_VERS = 2.0
CREATION_DATE  = 
ORIGINATOR     = 

OBJECT_NAME    = STARLINK-35931
OBJECT_ID      = 2025-265D
CENTER_NAME    = EARTH
REF_FRAME      = TEME
TIME_SYSTEM    = UTC
MEAN_ELEMENT_THEORY = SGP/SGP4

EPOCH          = 2025-11-26T22:00:05.999904
MEAN_MOTION    = 15.89489907
ECCENTRICITY   = .00017807
INCLINATION    = 43.0012
RA_OF_ASC_NODE = 149.0847
ARG_OF_PERICENTER = 276.7038
MEAN_ANOMALY   = 44.1253

EPHEMERIS_TYPE = 0
CLASSIFICATION_TYPE = U
NORAD_CAT_ID   = 66519
ELEMENT_SET_NO = 999
REV_AT_EPOCH   = 245
BSTAR          = -.4644519E-2
MEAN_MOTION_DOT = -.1250385E-1
MEAN_MOTION_DDOT = 0

CCSDS_OMM_VERS = 2.0
CREATION_DATE  = 
ORIGINATOR     = 

OBJECT_NAME    = STARLINK-35952
OBJECT_ID      = 2025-265E
CENTER_NAME    = EARTH
REF_FRAME      = TEME
TIME_SYSTEM    = UTC
MEAN_ELEMENT_THEORY = SGP/SGP4

EPOCH          = 2025-11-26T22:00:05.999904
MEAN_MOTION    = 15.89532490
ECCENTRICITY   = .00017766
INCLINATION    = 43.0008
RA_OF_ASC_NODE = 149.0792
ARG_OF_PERICENTER = 278.1637
MEAN_ANOMALY   = 44.7550

EPHEMERIS_TYPE = 0
CLASSIFICATION_TYPE = U
NORAD_CAT_ID   = 66520
ELEMENT_SET_NO = 999
REV_AT_EPOCH   = 245
BSTAR          = -.46398738E-2
MEAN_MOTION_DOT = -.1251697E-1
MEAN_MOTION_DDOT = 0

CCSDS_OMM_VERS = 2.0
CREATION_DATE  = 
ORIGINATOR     = 

OBJECT_NAME    = STARLINK-35915
OBJECT_ID      = 2025-265F
CENTER_NAME    = EARTH
REF_FRAME      = TEME
TIME_SYSTEM    = UTC
MEAN_ELEMENT_THEORY = SGP/SGP4

EPOCH          = 2025-11-26T22:00:05.999904
MEAN_MOTION    = 15.89579351
ECCENTRICITY   = .00018758
INCLINATION    = 43.0009
RA_OF_ASC_NODE = 149.0751
ARG_OF_PERICENTER = 275.3638
MEAN_ANOMALY   = 49.1502

EPHEMERIS_TYPE = 0
CLASSIFICATION_TYPE = U
NORAD_CAT_ID   = 66521
ELEMENT_SET_NO = 999
REV_AT_EPOCH   = 245
BSTAR          = -.46697E-2
MEAN_MOTION_DOT = -.1261594E-1
MEAN_MOTION_DDOT = 0

CCSDS_OMM_VERS = 2.0
CREATION_DATE  = 
ORIGINATOR     = 

OBJECT_NAME    = STARLINK-35946
OBJECT_ID      = 2025-265G
CENTER_NAME    = EARTH
REF_FRAME      = TEME
TIME_SYSTEM    = UTC
MEAN_ELEMENT_THEORY = SGP/SGP4

EPOCH          = 2025-11-26T22:00:05.999904
MEAN_MOTION    = 15.89625861
ECCENTRICITY   = .00018181
INCLINATION    = 43.0009
RA_OF_ASC_NODE = 149.0697
ARG_OF_PERICENTER = 276.7850
MEAN_ANOMALY   = 49.9213

EPHEMERIS_TYPE = 0
CLASSIFICATION_TYPE = U
NORAD_CAT_ID   = 66522
ELEMENT_SET_NO = 999
REV_AT_EPOCH   = 245
BSTAR          = -.46967173E-2
MEAN_MOTION_DOT = -.127071E-1
MEAN_MOTION_DDOT = 0

CCSDS_OMM_VERS = 2.0
CREATION_DATE  = 
ORIGINATOR     = 

OBJECT_NAME    = STARLINK-35969
OBJECT_ID      = 2025-265H
CENTER_NAME    = EARTH
REF_FRAME      = TEME
TIME_SYSTEM    = UTC
MEAN_ELEMENT_THEORY = SGP/SGP4

EPOCH          = 2025-11-26T22:00:05.999904
MEAN_MOTION    = 15.89670693
ECCENTRICITY   = .00018374
INCLINATION    = 43.0012
RA_OF_ASC_NODE = 149.0645
ARG_OF_PERICENTER = 276.4748
MEAN_ANOMALY   = 52.2533

EPHEMERIS_TYPE = 0
CLASSIFICATION_TYPE = U
NORAD_CAT_ID   = 66523
ELEMENT_SET_NO = 999
REV_AT_EPOCH   = 245
BSTAR          = -.47146626E-2
MEAN_MOTION_DOT = -.1277627E-1
MEAN_MOTION_DDOT = 0

CCSDS_OMM_VERS = 2.0
CREATION_DATE  = 
ORIGINATOR     = 

OBJECT_NAME    = STARLINK-35687
OBJECT_ID      = 2025-265J
CENTER_NAME    = EARTH
REF_FRAME      = TEME
TIME_SYSTEM    = UTC
MEAN_ELEMENT_THEORY = SGP/SGP4

EPOCH          = 2025-11-26T22:00:05.999904
MEAN_MOTION    = 15.89718728
ECCENTRICITY   = .00018472
INCLINATION    = 43.0010
RA_OF_ASC_NODE = 149.0591
ARG_OF_PERICENTER = 273.5777
MEAN_ANOMALY   = 57.2523

EPHEMERIS_TYPE = 0
CLASSIFICATION_TYPE = U
NORAD_CAT_ID   = 66524
ELEMENT_SET_NO = 999
REV_AT_EPOCH   = 245
BSTAR          = -.47390261E-2
MEAN_MOTION_DOT = -.1286284E-1
MEAN_MOTION_DDOT = 0

CCSDS_OMM_VERS = 2.0
CREATION_DATE  = 
ORIGINATOR     = 

OBJECT_NAME    = STARLINK-35975
OBJECT_ID      = 2025-265K
CENTER_NAME    = EARTH
REF_FRAME      = TEME
TIME_SYSTEM    = UTC
MEAN_ELEMENT_THEORY = SGP/SGP4

EPOCH          = 2025-11-26T22:00:05.999904
MEAN_MOTION    = 15.89761547
ECCENTRICITY   = .00017005
INCLINATION    = 43.0010
RA_OF_ASC_NODE = 149.0548
ARG_OF_PERICENTER = 279.6484
MEAN_ANOMALY   = 53.0027

EPHEMERIS_TYPE = 0
CLASSIFICATION_TYPE = U
NORAD_CAT_ID   = 66525
ELEMENT_SET_NO = 999
REV_AT_EPOCH   = 245
BSTAR          = -.47455048E-2
MEAN_MOTION_DOT = -.1290243E-1
MEAN_MOTION_DDOT = 0

CCSDS_OMM_VERS = 2.0
CREATION_DATE  = 
ORIGINATOR     = 

OBJECT_NAME    = STARLINK-35932
OBJECT_ID      = 2025-265L
CENTER_NAME    = EARTH
REF_FRAME      = TEME
TIME_SYSTEM    = UTC
MEAN_ELEMENT_THEORY = SGP/SGP4

EPOCH          = 2025-11-26T22:00:05.999904
MEAN_MOTION    = 15.89806191
ECCENTRICITY   = .00018388
INCLINATION    = 43.0012
RA_OF_ASC_NODE = 149.0495
ARG_OF_PERICENTER = 277.8180
MEAN_ANOMALY   = 56.8977

EPHEMERIS_TYPE = 0
CLASSIFICATION_TYPE = U
NORAD_CAT_ID   = 66526
ELEMENT_SET_NO = 999
REV_AT_EPOCH   = 234
BSTAR          = -.47600186E-2
MEAN_MOTION_DOT = -.1296461E-1
MEAN_MOTION_DDOT = 0

CCSDS_OMM_VERS = 2.0
CREATION_DATE  = 
ORIGINATOR     = 

OBJECT_NAME    = STARLINK-35935
OBJECT_ID      = 2025-265M
CENTER_NAME    = EARTH
REF_FRAME      = TEME
TIME_SYSTEM    = UTC
MEAN_ELEMENT_THEORY = SGP/SGP4

EPOCH          = 2025-11-26T22:00:05.999904
MEAN_MOTION    = 15.89850332
ECCENTRICITY   = .00018764
INCLINATION    = 43.0012
RA_OF_ASC_NODE = 149.0446
ARG_OF_PERICENTER = 275.7516
MEAN_ANOMALY   = 61.0561

EPHEMERIS_TYPE = 0
CLASSIFICATION_TYPE = U
NORAD_CAT_ID   = 66527
ELEMENT_SET_NO = 999
REV_AT_EPOCH   = 245
BSTAR          = -.47651173E-2
MEAN_MOTION_DOT = -.1300324E-1
MEAN_MOTION_DDOT = 0

CCSDS_OMM_VERS = 2.0
CREATION_DATE  = 
ORIGINATOR     = 

OBJECT_NAME    = STARLINK-35928
OBJECT_ID      = 2025-265N
CENTER_NAME    = EARTH
REF_FRAME      = TEME
TIME_SYSTEM    = UTC
MEAN_ELEMENT_THEORY = SGP/SGP4

EPOCH          = 2025-11-26T22:00:05.999904
MEAN_MOTION    = 15.89897575
ECCENTRICITY   = .00019028
INCLINATION    = 43.0012
RA_OF_ASC_NODE = 149.0391
ARG_OF_PERICENTER = 277.0129
MEAN_ANOMALY   = 61.8454

EPHEMERIS_TYPE = 0
CLASSIFICATION_TYPE = U
NORAD_CAT_ID   = 66528
ELEMENT_SET_NO = 999
REV_AT_EPOCH   = 245
BSTAR          = -.47926466E-2
MEAN_MOTION_DOT = -.1309785E-1
MEAN_MOTION_DDOT = 0

CCSDS_OMM_VERS = 2.0
CREATION_DATE  = 
ORIGINATOR     = 

OBJECT_NAME    = STARLINK-35933
OBJECT_ID      = 2025-265P
CENTER_NAME    = EARTH
REF_FRAME      = TEME
TIME_SYSTEM    = UTC
MEAN_ELEMENT_THEORY = SGP/SGP4

EPOCH          = 2025-11-26T22:00:05.999904
MEAN_MOTION    = 15.89945006
ECCENTRICITY   = .00018681
INCLINATION    = 43.0012
RA_OF_ASC_NODE = 149.0335
ARG_OF_PERICENTER = 276.1816
MEAN_ANOMALY   = 64.8372

EPHEMERIS_TYPE = 0
CLASSIFICATION_TYPE = U
NORAD_CAT_ID   = 66529
ELEMENT_SET_NO = 999
REV_AT_EPOCH   = 245
BSTAR          = -.48202603E-2
MEAN_MOTION_DOT = -.1319251E-1
MEAN_MOTION_DDOT = 0

